*******************************************************************************
Ephemeris / WWW_USER Mon Mar 24 06:38:55 2025 Pasadena, USA      / Horizons    
*******************************************************************************
Target body name: (2018 RP1)                      {source: JPL#4}
Center body name: Earth (399)                     {source: DE441}
Center-site name: Gemini South Obs., Cerro Pachon
*******************************************************************************
Start time      : A.D. 2018-Sep-03 22:37:00.0000 UT      
Stop  time      : A.D. 2018-Sep-04 10:46:00.0000 UT      
Step-size       : 1 minutes
*******************************************************************************
Target pole/equ : undefined
Target radii    : undefined                                                    
Center geodetic : 289.2634, -30.2406227, 2.71233  {E-lon(deg),Lat(deg),Alt(km)}
Center cylindric: 289.2634,5517.21435,-3194.81213 {E-lon(deg),Dxy(km),Dz(km)}
Center pole/equ : ITRF93                          {East-longitude positive}
Center radii    : 6378.137, 6378.137, 6356.752 km {Equator_a, b, pole_c}       
Target primary  : Sun
Vis. interferer : MOON (R_eq= 1737.400) km        {source: DE441}
Rel. light bend : Sun                             {source: DE441}
Rel. lght bnd GM: 1.3271E+11 km^3/s^2                                          
Small-body perts: Yes                             {source: SB441-N16}
Atmos refraction: NO (AIRLESS)
RA format       : HMS
Time format     : CAL 
Calendar mode   : Mixed Julian/Gregorian
RTS-only print  : NO       
EOP file        : eop.250321.p250617                                           
EOP coverage    : DATA-BASED 1962-JAN-20 TO 2025-MAR-21. PREDICTS-> 2025-JUN-16
Units conversion: 1 au= 149597870.700 km, c= 299792.458 km/s, 1 day= 86400.0 s 
Table cut-offs 1: Elevation (-90.0deg=NO ),Airmass (>38.000=NO), Daylight (YES)
Table cut-offs 2: Solar elongation (  0.0,180.0=NO ),Local Hour Angle( 0.0=NO )
Table cut-offs 3: RA/DEC angular rate (     0.0=NO )                           
*******************************************************************************
Initial IAU76/J2000 heliocentric ecliptic osculating elements (au, days, deg.):
  EPOCH=  2458376.5 ! 2018-Sep-15.00 (TDB)         Residual RMS= .12525        
   EC= .3382936082205208   QR= .9576766169446216   TP= 2458412.3293739939      
   OM= 161.903422202901    W=  234.5704247756858   IN= 9.466091569921099       
  Equivalent ICRF heliocentric cartesian coordinates (au, au/d):
   X= 1.017940821946709E+00  Y=-7.278189102440286E-02  Z=-7.249995171787897E-02
  VX=-1.754817228708964E-03 VY= 1.862872143473751E-02 VZ= 4.887370356508847E-03
Asteroid physical parameters (km, seconds, rotational period in hours):        
   GM= n.a.                RAD= n.a.               ROTPER= n.a.                
   H= 24.3                 G= .150                 B-V= n.a.                   
                           ALBEDO= n.a.            STYP= n.a.                  
*******************************************************************************
 Date__(UT)__HR:MN     R.A._________(ICRF)_________DEC
******************************************************
$$SOE
 2018-Sep-04 08:52  m  01 22 38.416644 +03 18 36.39626
 2018-Sep-04 08:53  m  01 22 39.007290 +03 18 32.88375
 2018-Sep-04 08:54  m  01 22 39.598025 +03 18 29.37090
 2018-Sep-04 08:55  m  01 22 40.188847 +03 18 25.85771
 2018-Sep-04 08:56  m  01 22 40.779758 +03 18 22.34419
 2018-Sep-04 08:57  m  01 22 41.370759 +03 18 18.83033
 2018-Sep-04 08:58  m  01 22 41.961849 +03 18 15.31614
 2018-Sep-04 08:59  m  01 22 42.553029 +03 18 11.80162
 2018-Sep-04 09:00  m  01 22 43.144300 +03 18 08.28676
 2018-Sep-04 09:01  m  01 22 43.735663 +03 18 04.77157
 2018-Sep-04 09:02  m  01 22 44.327117 +03 18 01.25605
 2018-Sep-04 09:03  m  01 22 44.918664 +03 17 57.74019
 2018-Sep-04 09:04  m  01 22 45.510304 +03 17 54.22401
 2018-Sep-04 09:05  m  01 22 46.102037 +03 17 50.70749
 2018-Sep-04 09:06  m  01 22 46.693865 +03 17 47.19064
 2018-Sep-04 09:07  m  01 22 47.285787 +03 17 43.67345
 2018-Sep-04 09:08  m  01 22 47.877804 +03 17 40.15594
 2018-Sep-04 09:09  m  01 22 48.469916 +03 17 36.63810
 2018-Sep-04 09:10  m  01 22 49.062125 +03 17 33.11992
 2018-Sep-04 09:11  m  01 22 49.654431 +03 17 29.60142
 2018-Sep-04 09:12  m  01 22 50.246834 +03 17 26.08259
 2018-Sep-04 09:13  m  01 22 50.839334 +03 17 22.56343
 2018-Sep-04 09:14  m  01 22 51.431933 +03 17 19.04394
 2018-Sep-04 09:15  m  01 22 52.024630 +03 17 15.52412
 2018-Sep-04 09:16  m  01 22 52.617427 +03 17 12.00397
 2018-Sep-04 09:17  m  01 22 53.210324 +03 17 08.48350
 2018-Sep-04 09:18  m  01 22 53.803321 +03 17 04.96270
 2018-Sep-04 09:19  m  01 22 54.396419 +03 17 01.44157
 2018-Sep-04 09:20  m  01 22 54.989618 +03 16 57.92012
 2018-Sep-04 09:21  m  01 22 55.582919 +03 16 54.39834
 2018-Sep-04 09:22  m  01 22 56.176322 +03 16 50.87623
 2018-Sep-04 09:23  m  01 22 56.769829 +03 16 47.35380
 2018-Sep-04 09:24  m  01 22 57.363438 +03 16 43.83105
 2018-Sep-04 09:25  m  01 22 57.957152 +03 16 40.30797
 2018-Sep-04 09:26  m  01 22 58.550970 +03 16 36.78456
 2018-Sep-04 09:27  m  01 22 59.144893 +03 16 33.26083
 2018-Sep-04 09:28  m  01 22 59.738922 +03 16 29.73678
 2018-Sep-04 09:29  m  01 23 00.333056 +03 16 26.21241
 2018-Sep-04 09:30  m  01 23 00.927297 +03 16 22.68771
 2018-Sep-04 09:31  m  01 23 01.521645 +03 16 19.16269
 2018-Sep-04 09:32  m  01 23 02.116101 +03 16 15.63735
 2018-Sep-04 09:33  m  01 23 02.710664 +03 16 12.11168
 2018-Sep-04 09:34  m  01 23 03.305336 +03 16 08.58570
 2018-Sep-04 09:35  m  01 23 03.900116 +03 16 05.05940
 2018-Sep-04 09:36 Am  01 23 04.495006 +03 16 01.53277
 2018-Sep-04 09:37 Am  01 23 05.090006 +03 15 58.00583
 2018-Sep-04 09:38 Am  01 23 05.685117 +03 15 54.47856
 2018-Sep-04 09:39 Am  01 23 06.280338 +03 15 50.95098
 2018-Sep-04 09:40 Am  01 23 06.875671 +03 15 47.42307
 2018-Sep-04 09:41 Am  01 23 07.471116 +03 15 43.89485
 2018-Sep-04 09:42 Am  01 23 08.066673 +03 15 40.36631
 2018-Sep-04 09:43 Am  01 23 08.662342 +03 15 36.83746
 2018-Sep-04 09:44 Am  01 23 09.258126 +03 15 33.30828
 2018-Sep-04 09:45 Am  01 23 09.854023 +03 15 29.77879
 2018-Sep-04 09:46 Am  01 23 10.450034 +03 15 26.24899
 2018-Sep-04 09:47 Am  01 23 11.046160 +03 15 22.71887
 2018-Sep-04 09:48 Am  01 23 11.642401 +03 15 19.18843
 2018-Sep-04 09:49 Am  01 23 12.238758 +03 15 15.65767
 2018-Sep-04 09:50 Am  01 23 12.835231 +03 15 12.12661
 2018-Sep-04 09:51 Am  01 23 13.431821 +03 15 08.59522
 2018-Sep-04 09:52 Am  01 23 14.028528 +03 15 05.06353
 2018-Sep-04 09:53 Am  01 23 14.625352 +03 15 01.53152
 2018-Sep-04 09:54 Am  01 23 15.222295 +03 14 57.99920
 2018-Sep-04 09:55 Am  01 23 15.819356 +03 14 54.46656
 2018-Sep-04 09:56 Am  01 23 16.416536 +03 14 50.93362
 2018-Sep-04 09:57 Am  01 23 17.013836 +03 14 47.40036
 2018-Sep-04 09:58 Am  01 23 17.611255 +03 14 43.86679
 2018-Sep-04 09:59 Am  01 23 18.208795 +03 14 40.33291
 2018-Sep-04 10:00 Am  01 23 18.806455 +03 14 36.79872
 2018-Sep-04 10:01 Am  01 23 19.404237 +03 14 33.26422
 2018-Sep-04 10:02 Am  01 23 20.002141 +03 14 29.72941
 2018-Sep-04 10:03 Nm  01 23 20.600166 +03 14 26.19429
 2018-Sep-04 10:04 Nm  01 23 21.198315 +03 14 22.65886
 2018-Sep-04 10:05 Nm  01 23 21.796586 +03 14 19.12312
 2018-Sep-04 10:06 Nm  01 23 22.394981 +03 14 15.58708
 2018-Sep-04 10:07 Nm  01 23 22.993500 +03 14 12.05073
 2018-Sep-04 10:08 Nm  01 23 23.592143 +03 14 08.51407
 2018-Sep-04 10:09 Nm  01 23 24.190912 +03 14 04.97710
 2018-Sep-04 10:10 Nm  01 23 24.789805 +03 14 01.43983
 2018-Sep-04 10:11 Nm  01 23 25.388824 +03 13 57.90226
 2018-Sep-04 10:12 Nm  01 23 25.987970 +03 13 54.36437
 2018-Sep-04 10:13 Nm  01 23 26.587241 +03 13 50.82619
 2018-Sep-04 10:14 Nm  01 23 27.186640 +03 13 47.28770
 2018-Sep-04 10:15 Nm  01 23 27.786167 +03 13 43.74890
 2018-Sep-04 10:16 Nm  01 23 28.385821 +03 13 40.20980
 2018-Sep-04 10:17 Nm  01 23 28.985604 +03 13 36.67040
 2018-Sep-04 10:18 Nm  01 23 29.585515 +03 13 33.13070
 2018-Sep-04 10:19 Nm  01 23 30.185555 +03 13 29.59069
 2018-Sep-04 10:20 Nm  01 23 30.785725 +03 13 26.05039
 2018-Sep-04 10:21 Nm  01 23 31.386025 +03 13 22.50978
 2018-Sep-04 10:22 Nm  01 23 31.986456 +03 13 18.96887
 2018-Sep-04 10:23 Nm  01 23 32.587017 +03 13 15.42766
 2018-Sep-04 10:24 Nm  01 23 33.187709 +03 13 11.88615
 2018-Sep-04 10:25 Nm  01 23 33.788533 +03 13 08.34435
 2018-Sep-04 10:26 Nm  01 23 34.389490 +03 13 04.80224
 2018-Sep-04 10:27 Nm  01 23 34.990578 +03 13 01.25983
 2018-Sep-04 10:28 Nm  01 23 35.591800 +03 12 57.71713
 2018-Sep-04 10:29 Nm  01 23 36.193154 +03 12 54.17413
 2018-Sep-04 10:30 Nm  01 23 36.794643 +03 12 50.63083
 2018-Sep-04 10:31 Cm  01 23 37.396265 +03 12 47.08724
 2018-Sep-04 10:32 Cm  01 23 37.998022 +03 12 43.54335
 2018-Sep-04 10:33 Cm  01 23 38.599914 +03 12 39.99916
 2018-Sep-04 10:34 Cm  01 23 39.201941 +03 12 36.45468
 2018-Sep-04 10:35 Cm  01 23 39.804104 +03 12 32.90991
 2018-Sep-04 10:36 Cm  01 23 40.406403 +03 12 29.36484
 2018-Sep-04 10:37 Cm  01 23 41.008838 +03 12 25.81947
 2018-Sep-04 10:38 Cm  01 23 41.611410 +03 12 22.27382
 2018-Sep-04 10:39 Cm  01 23 42.214120 +03 12 18.72787
 2018-Sep-04 10:40 Cm  01 23 42.816967 +03 12 15.18163
 2018-Sep-04 10:41 Cm  01 23 43.419952 +03 12 11.63509
 2018-Sep-04 10:42 Cm  01 23 44.023075 +03 12 08.08827
 2018-Sep-04 10:43 Cm  01 23 44.626337 +03 12 04.54115
 2018-Sep-04 10:44 Cm  01 23 45.229738 +03 12 00.99375
 2018-Sep-04 10:45 Cm  01 23 45.833278 +03 11 57.44605
 2018-Sep-04 10:46 Cm  01 23 46.436959 +03 11 53.89807
